[{"OBJECT_NAME":"GONETS-M 11","OBJECT_ID":"2015-020A","EPOCH":"2026-03-03T21:04:32.312064","MEAN_MOTION":12.42872801,"ECCENTRICITY":0.0015235,"INCLINATION":82.4814,"RA_OF_ASC_NODE":96.619,"ARG_OF_PERICENTER":228.648,"MEAN_ANOMALY":131.329,"EPHEMERIS_TYPE":0,"CLASSIFICATION_TYPE":"U","NORAD_CAT_ID":40552,"ELEMENT_SET_NO":999,"REV_AT_EPOCH":49565,"BSTAR":0.0012173,"MEAN_MOTION_DOT":1.78e-6,"MEAN_MOTION_DDOT":0},{"OBJECT_NAME":"GONETS-M 12","OBJECT_ID":"2015-020B","EPOCH":"2026-03-03T20:28:11.358336","MEAN_MOTION":12.42888428,"ECCENTRICITY":0.00145,"INCLINATION":82.4849,"RA_OF_ASC_NODE":97.7313,"ARG_OF_PERICENTER":212.3636,"MEAN_ANOMALY":147.6555,"EPHEMERIS_TYPE":0,"CLASSIFICATION_TYPE":"U","NORAD_CAT_ID":40553,"ELEMENT_SET_NO":999,"REV_AT_EPOCH":49564,"BSTAR":0.00091895,"MEAN_MOTION_DOT":1.37e-6,"MEAN_MOTION_DDOT":0},{"OBJECT_NAME":"GONETS-M 13","OBJECT_ID":"2015-020C","EPOCH":"2026-03-03T19:47:26.818080","MEAN_MOTION":12.42866561,"ECCENTRICITY":0.001343,"INCLINATION":82.481,"RA_OF_ASC_NODE":96.3944,"ARG_OF_PERICENTER":195.858,"MEAN_ANOMALY":164.2081,"EPHEMERIS_TYPE":0,"CLASSIFICATION_TYPE":"U","NORAD_CAT_ID":40554,"ELEMENT_SET_NO":999,"REV_AT_EPOCH":49561,"BSTAR":-0.0035934,"MEAN_MOTION_DOT":-4.88e-6,"MEAN_MOTION_DDOT":0},{"OBJECT_NAME":"DMC3-FM1","OBJECT_ID":"2015-032A","EPOCH":"2026-03-03T20:50:43.575360","MEAN_MOTION":14.85604435,"ECCENTRICITY":0.0006821,"INCLINATION":97.6627,"RA_OF_ASC_NODE":292.0825,"ARG_OF_PERICENTER":49.5828,"MEAN_ANOMALY":310.5981,"EPHEMERIS_TYPE":0,"CLASSIFICATION_TYPE":"U","NORAD_CAT_ID":40715,"ELEMENT_SET_NO":999,"REV_AT_EPOCH":57427,"BSTAR":0.00018243,"MEAN_MOTION_DOT":1.528e-5,"MEAN_MOTION_DDOT":0},{"OBJECT_NAME":"DMC3-FM2","OBJECT_ID":"2015-032B","EPOCH":"2026-03-03T21:22:54.528096","MEAN_MOTION":14.85605194,"ECCENTRICITY":0.0007409,"INCLINATION":97.6684,"RA_OF_ASC_NODE":293.6052,"ARG_OF_PERICENTER":52.9043,"MEAN_ANOMALY":307.2848,"EPHEMERIS_TYPE":0,"CLASSIFICATION_TYPE":"U","NORAD_CAT_ID":40716,"ELEMENT_SET_NO":999,"REV_AT_EPOCH":57427,"BSTAR":7.3757e-5,"MEAN_MOTION_DOT":5.87e-6,"MEAN_MOTION_DDOT":0},{"OBJECT_NAME":"DMC3-FM3","OBJECT_ID":"2015-032C","EPOCH":"2026-03-03T20:19:07.104000","MEAN_MOTION":14.85567604,"ECCENTRICITY":0.0006714,"INCLINATION":97.6737,"RA_OF_ASC_NODE":295.2469,"ARG_OF_PERICENTER":54.1996,"MEAN_ANOMALY":305.9843,"EPHEMERIS_TYPE":0,"CLASSIFICATION_TYPE":"U","NORAD_CAT_ID":40717,"ELEMENT_SET_NO":999,"REV_AT_EPOCH":57427,"BSTAR":7.9899e-5,"MEAN_MOTION_DOT":6.39e-6,"MEAN_MOTION_DDOT":0},{"OBJECT_NAME":"CARBONITE 1 (CBNT-1)","OBJECT_ID":"2015-032D","EPOCH":"2026-03-03T19:40:20.864352","MEAN_MOTION":14.83184973,"ECCENTRICITY":0.0013266,"INCLINATION":97.6452,"RA_OF_ASC_NODE":245.3398,"ARG_OF_PERICENTER":281.7999,"MEAN_ANOMALY":78.1727,"EPHEMERIS_TYPE":0,"CLASSIFICATION_TYPE":"U","NORAD_CAT_ID":40718,"ELEMENT_SET_NO":999,"REV_AT_EPOCH":57372,"BSTAR":0.00035965,"MEAN_MOTION_DOT":2.889e-5,"MEAN_MOTION_DDOT":0},{"OBJECT_NAME":"DEORBITSAIL","OBJECT_ID":"2015-032E","EPOCH":"2026-03-03T13:47:07.133568","MEAN_MOTION":15.02145154,"ECCENTRICITY":0.0011608,"INCLINATION":97.6,"RA_OF_ASC_NODE":281.4482,"ARG_OF_PERICENTER":230.3882,"MEAN_ANOMALY":129.6319,"EPHEMERIS_TYPE":0,"CLASSIFICATION_TYPE":"U","NORAD_CAT_ID":40719,"ELEMENT_SET_NO":999,"REV_AT_EPOCH":57538,"BSTAR":0.00086958,"MEAN_MOTION_DOT":0.00011407,"MEAN_MOTION_DDOT":0},{"OBJECT_NAME":"2015-049G","OBJECT_ID":"2015-049G","EPOCH":"2026-03-03T19:54:13.108032","MEAN_MOTION":15.58671853,"ECCENTRICITY":0.0004546,"INCLINATION":97.4725,"RA_OF_ASC_NODE":101.109,"ARG_OF_PERICENTER":230.4903,"MEAN_ANOMALY":129.5952,"EPHEMERIS_TYPE":0,"CLASSIFICATION_TYPE":"U","NORAD_CAT_ID":40905,"ELEMENT_SET_NO":999,"REV_AT_EPOCH":57999,"BSTAR":0.00057062,"MEAN_MOTION_DOT":0.00043908,"MEAN_MOTION_DDOT":0},{"OBJECT_NAME":"LILACSAT-2","OBJECT_ID":"2015-049K","EPOCH":"2026-03-03T19:49:25.321728","MEAN_MOTION":15.47764147,"ECCENTRICITY":0.0005588,"INCLINATION":97.4814,"RA_OF_ASC_NODE":95.8472,"ARG_OF_PERICENTER":274.8926,"MEAN_ANOMALY":85.1686,"EPHEMERIS_TYPE":0,"CLASSIFICATION_TYPE":"U","NORAD_CAT_ID":40908,"ELEMENT_SET_NO":999,"REV_AT_EPOCH":57943,"BSTAR":0.00043358,"MEAN_MOTION_DOT":0.00022425,"MEAN_MOTION_DDOT":0},{"OBJECT_NAME":"COSMOS 2507 (RODNIK-S 13)","OBJECT_ID":"2015-050A","EPOCH":"2026-03-03T20:45:17.754912","MEAN_MOTION":12.4292298,"ECCENTRICITY":0.0009474,"INCLINATION":82.4958,"RA_OF_ASC_NODE":145.2473,"ARG_OF_PERICENTER":211.6682,"MEAN_ANOMALY":148.3828,"EPHEMERIS_TYPE":0,"CLASSIFICATION_TYPE":"U","NORAD_CAT_ID":40920,"ELEMENT_SET_NO":999,"REV_AT_EPOCH":47377,"BSTAR":0.00043793,"MEAN_MOTION_DOT":7.1e-7,"MEAN_MOTION_DDOT":0},{"OBJECT_NAME":"COSMOS 2508 (RODNIK-S 14)","OBJECT_ID":"2015-050B","EPOCH":"2026-03-03T19:38:55.494240","MEAN_MOTION":12.42909591,"ECCENTRICITY":0.001313,"INCLINATION":82.4908,"RA_OF_ASC_NODE":143.822,"ARG_OF_PERICENTER":249.6978,"MEAN_ANOMALY":110.2691,"EPHEMERIS_TYPE":0,"CLASSIFICATION_TYPE":"U","NORAD_CAT_ID":40921,"ELEMENT_SET_NO":999,"REV_AT_EPOCH":47375,"BSTAR":-0.00030329,"MEAN_MOTION_DOT":-3.2e-7,"MEAN_MOTION_DDOT":0},{"OBJECT_NAME":"COSMOS 2509 (RODNIK-S 15)","OBJECT_ID":"2015-050C","EPOCH":"2026-03-03T20:04:56.358624","MEAN_MOTION":12.42929645,"ECCENTRICITY":0.0013275,"INCLINATION":82.4915,"RA_OF_ASC_NODE":143.9028,"ARG_OF_PERICENTER":269.832,"MEAN_ANOMALY":90.1238,"EPHEMERIS_TYPE":0,"CLASSIFICATION_TYPE":"U","NORAD_CAT_ID":40922,"ELEMENT_SET_NO":999,"REV_AT_EPOCH":47379,"BSTAR":-0.00068576,"MEAN_MOTION_DOT":-8.5e-7,"MEAN_MOTION_DDOT":0},{"OBJECT_NAME":"LQSAT","OBJECT_ID":"2015-057A","EPOCH":"2026-03-03T21:46:21.297216","MEAN_MOTION":14.76624459,"ECCENTRICITY":0.0015531,"INCLINATION":97.6652,"RA_OF_ASC_NODE":61.5249,"ARG_OF_PERICENTER":253.3703,"MEAN_ANOMALY":106.5803,"EPHEMERIS_TYPE":0,"CLASSIFICATION_TYPE":"U","NORAD_CAT_ID":40958,"ELEMENT_SET_NO":999,"REV_AT_EPOCH":55977,"BSTAR":0.00019705,"MEAN_MOTION_DOT":1.331e-5,"MEAN_MOTION_DDOT":0},{"OBJECT_NAME":"LINGQIAO VIDEO A","OBJECT_ID":"2015-057B","EPOCH":"2026-03-03T20:03:10.617120","MEAN_MOTION":14.77227181,"ECCENTRICITY":0.0015258,"INCLINATION":97.6599,"RA_OF_ASC_NODE":62.8617,"ARG_OF_PERICENTER":250.9,"MEAN_ANOMALY":109.0559,"EPHEMERIS_TYPE":0,"CLASSIFICATION_TYPE":"U","NORAD_CAT_ID":40959,"ELEMENT_SET_NO":999,"REV_AT_EPOCH":55985,"BSTAR":0.00019652,"MEAN_MOTION_DOT":1.346e-5,"MEAN_MOTION_DDOT":0},{"OBJECT_NAME":"LINGQIAO VIDEO B","OBJECT_ID":"2015-057C","EPOCH":"2026-03-03T21:17:28.374144","MEAN_MOTION":14.77317361,"ECCENTRICITY":0.0015439,"INCLINATION":97.6571,"RA_OF_ASC_NODE":64.0998,"ARG_OF_PERICENTER":250.9107,"MEAN_ANOMALY":109.0433,"EPHEMERIS_TYPE":0,"CLASSIFICATION_TYPE":"U","NORAD_CAT_ID":40960,"ELEMENT_SET_NO":999,"REV_AT_EPOCH":55990,"BSTAR":0.00014919,"MEAN_MOTION_DOT":1.013e-5,"MEAN_MOTION_DDOT":0},{"OBJECT_NAME":"JILIN-1","OBJECT_ID":"2015-057D","EPOCH":"2026-03-03T19:29:08.478816","MEAN_MOTION":14.7798054,"ECCENTRICITY":0.0015605,"INCLINATION":97.6514,"RA_OF_ASC_NODE":67.4257,"ARG_OF_PERICENTER":244.4331,"MEAN_ANOMALY":115.5267,"EPHEMERIS_TYPE":0,"CLASSIFICATION_TYPE":"U","NORAD_CAT_ID":40961,"ELEMENT_SET_NO":999,"REV_AT_EPOCH":56004,"BSTAR":0.00015675,"MEAN_MOTION_DOT":1.084e-5,"MEAN_MOTION_DDOT":0}]
