GONETS-M 11             
1 40552U 15020A   26062.87815176  .00000178  00000+0  12173-2 0  9994
2 40552  82.4814  96.6190 0015235 228.6480 131.3290 12.42872801495655
GONETS-M 12             
1 40553U 15020B   26062.85290924  .00000137  00000+0  91895-3 0  9995
2 40553  82.4849  97.7313 0014500 212.3636 147.6555 12.42888428495645
GONETS-M 13             
1 40554U 15020C   26062.82461595 -.00000488  00000+0 -35934-2 0  9999
2 40554  82.4810  96.3944 0013430 195.8580 164.2081 12.42866561495613
DMC3-FM1                
1 40715U 15032A   26062.86855990  .00001528  00000+0  18243-3 0  9990
2 40715  97.6627 292.0825 0006821  49.5828 310.5981 14.85604435574279
DMC3-FM2                
1 40716U 15032B   26062.89090889  .00000587  00000+0  73757-4 0  9998
2 40716  97.6684 293.6052 0007409  52.9043 307.2848 14.85605194574270
DMC3-FM3                
1 40717U 15032C   26062.84661000  .00000639  00000+0  79899-4 0  9994
2 40717  97.6737 295.2469 0006714  54.1996 305.9843 14.85567604574272
CARBONITE 1 (CBNT-1)    
1 40718U 15032D   26062.81968593  .00002889  00000+0  35965-3 0  9993
2 40718  97.6452 245.3398 0013266 281.7999  78.1727 14.83184973573726
DEORBITSAIL             
1 40719U 15032E   26062.57438812  .00011407  00000+0  86958-3 0  9997
2 40719  97.6000 281.4482 0011608 230.3882 129.6319 15.02145154575383
2015-049G               
1 40905U 15049G   26062.82931838  .00043908  00000+0  57062-3 0  9991
2 40905  97.4725 101.1090 0004546 230.4903 129.5952 15.58671853579997
LILACSAT-2              
1 40908U 15049K   26062.82598752  .00022425  00000+0  43358-3 0  9992
2 40908  97.4814  95.8472 0005588 274.8926  85.1686 15.47764147579433
COSMOS 2507 (RODNIK-S *)
1 40920U 15050A   26062.86478883  .00000071  00000+0  43793-3 0  9990
2 40920  82.4958 145.2473 0009474 211.6682 148.3828 12.42922980473770
COSMOS 2508 (RODNIK-S *)
1 40921U 15050B   26062.81869785 -.00000032  00000+0 -30329-3 0  9991
2 40921  82.4908 143.8220 0013130 249.6978 110.2691 12.42909591473750
COSMOS 2509 (RODNIK-S *)
1 40922U 15050C   26062.83676341 -.00000085  00000+0 -68576-3 0  9991
2 40922  82.4915 143.9028 0013275 269.8320  90.1238 12.42929645473790
LQSAT                   
1 40958U 15057A   26062.90719094  .00001331  00000+0  19705-3 0  9991
2 40958  97.6652  61.5249 0015531 253.3703 106.5803 14.76624459559772
LINGQIAO VIDEO A        
1 40959U 15057B   26062.83553955  .00001346  00000+0  19652-3 0  9993
2 40959  97.6599  62.8617 0015258 250.9000 109.0559 14.77227181559852
LINGQIAO VIDEO B        
1 40960U 15057C   26062.88713396  .00001013  00000+0  14919-3 0  9999
2 40960  97.6571  64.0998 0015439 250.9107 109.0433 14.77317361559906
JILIN-1                 
1 40961U 15057D   26062.81190369  .00001084  00000+0  15675-3 0  9990
2 40961  97.6514  67.4257 0015605 244.4331 115.5267 14.77980540560040
